MALLIGYONG-1            
1 58400U 23179A   23339.16559419  .00006996  00000+0  31436-3 0  9998
2 58400  97.4264 223.7643 0014421 227.2978 132.7044 15.21365235  2069
